STARLINK-30801          
1 58184U 23167K   25276.34845057 -.00000347  00000+0 -10595-4 0  9992
2 58184  43.0030 281.1699 0001203 275.0561  85.0144 15.02533860107289
STARLINK-30793          
1 58185U 23167L   25276.50792820  .00006432  00000+0  49081-3 0  9990
2 58185  43.0031 279.7877 0001528 271.6754  88.3914 15.02534209107311
STARLINK-30755          
1 58186U 23167M   25276.40605621  .00003646  00000+0  28487-3 0  9993
2 58186  43.0023 280.7407 0000757 265.0343  95.0413 15.02532283107294
STARLINK-30760          
1 58187U 23167N   25276.37164161  .00001464  00000+0  12345-3 0  9991
2 58187  43.0028 280.4796 0001031 261.2935  98.7791 15.02536703107299
STARLINK-30826          
1 58188U 23167P   25276.07255324  .00001761  00000+0  14538-3 0  9997
2 58188  43.0033 282.5428 0001062 285.9903  74.0822 15.02532460107246
STARLINK-30796          
1 58189U 23167Q   25276.14237579 -.00001509  00000+0 -96698-4 0  9998
2 58189  43.0050 282.2034 0001803 267.5194  92.5442 15.02516073107253
STARLINK-30820          
1 58190U 23167R   25275.34798713  .00026577  00000+0  19816-2 0  9998
2 58190  43.0035 286.5634 0000170 329.7613  30.3219 15.02410093107138
STARLINK-30785          
1 58191U 23167S   25276.33180912 -.00001785  00000+0 -11703-3 0  9999
2 58191  43.0032 281.0491 0001541 272.7481  87.3185 15.02548949107282
STARLINK-30807          
1 58192U 23167T   25276.06922145  .00001252  00000+0  10773-3 0  9995
2 58192  43.0048 282.5162 0001068 271.9267  88.1453 15.02535755107242
STARLINK-30822          
1 58193U 23167U   25276.32847272  .00001481  00000+0  12464-3 0  9995
2 58193  43.0071 281.0214 0001078 260.8751  99.1970 15.02538495107281
STARLINK-30830          
1 58194U 23167V   25276.05812889 -.00000246  00000+0 -31395-5 0  9998
2 58194  43.0038 282.4134 0000886 272.9652  87.1089 15.02535964107243
STARLINK-30827          
1 58195U 23167W   25276.38829810  .00001424  00000+0  12052-3 0  9991
2 58195  43.0044 280.6112 0001327 270.9724  89.0967 15.02517991107297
STARLINK-30798          
1 58196U 23167X   25276.03271022 -.00000823  00000+0 -45874-4 0  9993
2 58196  43.0045 283.0994 0001381 276.7102  83.3583 15.02540249107235
STARLINK-30762          
1 58197U 23167Y   25276.45810792  .00007062  00000+0  53742-3 0  9995
2 58197  43.0041 280.2674 0001527 255.4965 104.5708 15.02530541107306
TIANHUI 5A              
1 58199U 23168A   25275.65508296  .00001580  00000+0  17989-3 0  9994
2 58199  97.8195 281.7420 0001895  78.8015 281.3414 14.87579152104310
TIANHUI 5B              
1 58201U 23168C   25272.82996888  .00001138  00000+0  13119-3 0  9992
2 58201  97.8212 278.9604 0002132  95.0564 265.0895 14.87588984103898
TJS-10                  
1 58204U 23169A   25275.77888559  .00000004  00000+0  00000+0 0  9990
2 58204   1.8736  83.5947 0004475 138.4478 243.1163  1.00270712  6968
STARLINK-30800          
1 58206U 23170A   25276.58302165  .00003631  00000+0  28377-3 0  9998
2 58206  43.0038 329.8450 0001269 264.1455  95.9243 15.02526210106640
STARLINK-30845          
1 58207U 23170B   25276.54639197  .00006289  00000+0  48006-3 0  9996
2 58207  43.0017 329.5912 0001196 259.9164 100.1543 15.02545215106644
STARLINK-30841          
1 58208U 23170C   25276.52653266  .00006834  00000+0  52060-3 0  9999
2 58208  43.0040 330.2654 0001528 262.6704  97.3964 15.02526921106639
STARLINK-30839          
1 58209U 23170D   25276.50649052  .00010817  00000+0  81345-3 0  9990
2 58209  43.0042 330.1297 0001194 267.7471  92.3234 15.02587468106638
STARLINK-30846          
1 58210U 23170E   25276.50987580  .00004766  00000+0  36762-3 0  9992
2 58210  42.9999 330.1547 0000896 277.8106  82.2635 15.02539055106634
STARLINK-30838          
1 58211U 23170F   25276.56636597  .00000373  00000+0  42714-4 0  9993
2 58211  43.0037 329.7196 0001164 260.1316  99.9395 15.02535864106644
STARLINK-30837          
1 58212U 23170G   25276.57969862  .00008717  00000+0  65939-3 0  9992
2 58212  43.0024 329.8021 0000947 249.5250 110.5490 15.02544098106640
STARLINK-30813          
1 58213U 23170H   25276.49656281  .00002174  00000+0  17603-3 0  9998
2 58213  43.0036 330.0562 0001202 263.2162  96.8543 15.02528027106636
STARLINK-30805          
1 58214U 23170J   25276.49323309  .00002650  00000+0  21124-3 0  9993
2 58214  43.0041 330.0302 0001358 264.3979  95.6709 15.02525940106637
STARLINK-30851          
1 58215U 23170K   25276.42342751  .00005058  00000+0  38928-3 0  9994
2 58215  43.0042 330.3684 0001507 266.2726  93.7944 15.02533746106624
STARLINK-30818          
1 58217U 23170M   25276.54972491  .00009081  00000+0  68641-3 0  9994
2 58217  43.0039 329.5961 0001620 270.5747  89.4910 15.02538597106643
STARLINK-30794          
1 58218U 23170N   25276.43673749 -.00002548  00000+0 -17358-3 0  9999
2 58218  43.0052 330.4499 0000985 274.0558  86.0172 15.02544423106624
STARLINK-30835          
1 58219U 23170P   25276.54306159  .00004088  00000+0  31749-3 0  9999
2 58219  43.0037 329.5454 0001354 290.2547  69.8150 15.02536931106649
