OBJECT_NAME,OBJECT_ID,EPOCH,MEAN_MOTION,ECCENTRICITY,INCLINATION,RA_OF_ASC_NODE,ARG_OF_PERICENTER,MEAN_ANOMALY,EPHEMERIS_TYPE,CLASSIFICATION_TYPE,NORAD_CAT_ID,ELEMENT_SET_NO,REV_AT_EPOCH,BSTAR,MEAN_MOTION_DOT,MEAN_MOTION_DDOT
STARLINK-30801,2023-167K,2025-10-03T08:21:46.129248,15.02533860,.00012038,43.0030,281.1699,275.0561,85.0144,0,U,58184,999,10728,-.10595176E-4,-.347E-5,0
STARLINK-30793,2023-167L,2025-10-03T12:11:24.996480,15.02534209,.00015281,43.0031,279.7877,271.6754,88.3914,0,U,58185,999,10731,.49081472E-3,.6432E-4,0
STARLINK-30755,2023-167M,2025-10-03T09:44:43.256544,15.02532283,.00007571,43.0023,280.7407,265.0343,95.0413,0,U,58186,999,10729,.28487283E-3,.3646E-4,0
STARLINK-30760,2023-167N,2025-10-03T08:55:09.835104,15.02536703,.00010317,43.0028,280.4796,261.2935,98.7791,0,U,58187,999,10729,.1234491E-3,.1464E-4,0
STARLINK-30826,2023-167P,2025-10-03T01:44:28.599936,15.02532460,.00010625,43.0033,282.5428,285.9903,74.0822,0,U,58188,999,10724,.14537932E-3,.1761E-4,0
STARLINK-30796,2023-167Q,2025-10-03T03:25:01.268256,15.02516073,.00018037,43.0050,282.2034,267.5194,92.5442,0,U,58189,999,10725,-.9669774E-4,-.1509E-4,0
STARLINK-30820,2023-167R,2025-10-02T08:21:06.088032,15.02410093,.000017,43.0035,286.5634,329.7613,30.3219,0,U,58190,999,10713,.19816E-2,.26577E-3,0
STARLINK-30785,2023-167S,2025-10-03T07:57:48.307968,15.02548949,.00015412,43.0032,281.0491,272.7481,87.3185,0,U,58191,999,10728,-.11703422E-3,-.1785E-4,0
STARLINK-30807,2023-167T,2025-10-03T01:39:40.733280,15.02535755,.00010689,43.0048,282.5162,271.9267,88.1453,0,U,58192,999,10724,.1077312E-3,.1252E-4,0
STARLINK-30822,2023-167U,2025-10-03T07:53:00.043008,15.02538495,.00010782,43.0071,281.0214,260.8751,99.1970,0,U,58193,999,10728,.12464169E-3,.1481E-4,0
STARLINK-30830,2023-167V,2025-10-03T01:23:42.336096,15.02535964,.00008868,43.0038,282.4134,272.9652,87.1089,0,U,58194,999,10724,-.3139467E-5,-.246E-5,0
STARLINK-30827,2023-167W,2025-10-03T09:19:08.955840,15.02517991,.00013279,43.0044,280.6112,270.9724,89.0967,0,U,58195,999,10729,.12052103E-3,.1424E-4,0
STARLINK-30798,2023-167X,2025-10-03T00:47:06.163008,15.02540249,.00013811,43.0045,283.0994,276.7102,83.3583,0,U,58196,999,10723,-.45874085E-4,-.823E-5,0
STARLINK-30762,2023-167Y,2025-10-03T10:59:40.524288,15.02530541,.00015274,43.0041,280.2674,255.4965,104.5708,0,U,58197,999,10730,.53742452E-3,.7062E-4,0
TIANHUI 5A,2023-168A,2025-10-02T15:43:19.167744,14.87579152,.00018959,97.8195,281.7420,78.8015,281.3414,0,U,58199,999,10431,.17989319E-3,.158E-4,0
TIANHUI 5B,2023-168C,2025-09-29T19:55:09.311232,14.87588984,.00021321,97.8212,278.9604,95.0564,265.0895,0,U,58201,999,10389,.13118798E-3,.1138E-4,0
TJS-10,2023-169A,2025-10-02T18:41:35.714976,1.00270712,.0004475,1.8736,83.5947,138.4478,243.1163,0,U,58204,999,696,0,.4E-7,0
STARLINK-30800,2023-170A,2025-10-03T13:59:33.070560,15.02526210,.00012694,43.0038,329.8450,264.1455,95.9243,0,U,58206,999,10664,.28377421E-3,.3631E-4,0
STARLINK-30845,2023-170B,2025-10-03T13:06:48.266208,15.02545215,.00011965,43.0017,329.5912,259.9164,100.1543,0,U,58207,999,10664,.48006197E-3,.6289E-4,0
STARLINK-30841,2023-170C,2025-10-03T12:38:12.421824,15.02526921,.00015288,43.0040,330.2654,262.6704,97.3964,0,U,58208,999,10663,.52059577E-3,.6834E-4,0
STARLINK-30839,2023-170D,2025-10-03T12:09:20.780928,15.02587468,.00011947,43.0042,330.1297,267.7471,92.3234,0,U,58209,999,10663,.81345362E-3,.10817E-3,0
STARLINK-30846,2023-170E,2025-10-03T12:14:13.269120,15.02539055,.00008965,42.9999,330.1547,277.8106,82.2635,0,U,58210,999,10663,.36761971E-3,.4766E-4,0
STARLINK-30838,2023-170F,2025-10-03T13:35:34.019808,15.02535864,.0001164,43.0037,329.7196,260.1316,99.9395,0,U,58211,999,10664,.42714169E-4,.373E-5,0
STARLINK-30837,2023-170G,2025-10-03T13:54:45.960768,15.02544098,.00009476,43.0024,329.8021,249.5250,110.5490,0,U,58212,999,10664,.65938805E-3,.8717E-4,0
STARLINK-30813,2023-170H,2025-10-03T11:55:03.026784,15.02528027,.00012023,43.0036,330.0562,263.2162,96.8543,0,U,58213,999,10663,.17602737E-3,.2174E-4,0
STARLINK-30805,2023-170J,2025-10-03T11:50:15.338976,15.02525940,.00013582,43.0041,330.0302,264.3979,95.6709,0,U,58214,999,10663,.21123535E-3,.265E-4,0
STARLINK-30851,2023-170K,2025-10-03T10:09:44.136864,15.02533746,.00015072,43.0042,330.3684,266.2726,93.7944,0,U,58215,999,10662,.38927718E-3,.5058E-4,0
STARLINK-30818,2023-170M,2025-10-03T13:11:36.232224,15.02538597,.00016204,43.0039,329.5961,270.5747,89.4910,0,U,58217,999,10664,.68641392E-3,.9081E-4,0
STARLINK-30794,2023-170N,2025-10-03T10:28:54.119136,15.02544423,.00009858,43.0052,330.4499,274.0558,86.0172,0,U,58218,999,10662,-.17357929E-3,-.2548E-4,0
STARLINK-30835,2023-170P,2025-10-03T13:02:00.521376,15.02536931,.00013545,43.0037,329.5454,290.2547,69.8150,0,U,58219,999,10664,.31749007E-3,.4088E-4,0
